{
"type": "FeatureCollection",
"name": "seen",
"crs": { "type": "name", "properties": { "name": "urn:ogc:def:crs:EPSG::2056" } },
"xy_coordinate_resolution": 1,
"features": [
{ "type": "Feature", "properties": { "gewaessername": "Zürichsee" }, "geometry": { "type": "MultiPolygon", "coordinates": [ [ [ [ 2691063, 1235856 ], [ 2691067, 1235853 ], [ 2691062, 1235855 ], [ 2691063, 1235856 ] ] ], [ [ [ 2694522, 1230944 ], [ 2694521, 1230939 ], [ 2694520, 1230943 ], [ 2694522, 1230944 ] ] ], [ [ [ 2696857, 1228855 ], [ 2696858, 1228904 ], [ 2696843, 1228888 ], [ 2696857, 1228855 ], [ 2696560, 1228793 ], [ 2696578, 1228804 ], [ 2696506, 1228867 ], [ 2696439, 1229002 ], [ 2696457, 1229112 ], [ 2696447, 1229174 ], [ 2696428, 1229165 ], [ 2696218, 1229315 ], [ 2696103, 1229443 ], [ 2696118, 1229453 ], [ 2696111, 1229467 ], [ 2696099, 1229463 ], [ 2695987, 1229572 ], [ 2696005, 1229613 ], [ 2696027, 1229608 ], [ 2696022, 1229583 ], [ 2696025, 1229557 ], [ 2696038, 1229639 ], [ 2696027, 1229648 ], [ 2696060, 1229789 ], [ 2696040, 1229810 ], [ 2695975, 1229806 ], [ 2695880, 1229777 ], [ 2695810, 1229826 ], [ 2695756, 1229912 ], [ 2695748, 1229952 ], [ 2695712, 1229977 ], [ 2695677, 1230037 ], [ 2695646, 1230111 ], [ 2695648, 1230165 ], [ 2695635, 1230159 ], [ 2695578, 1230291 ], [ 2695513, 1230316 ], [ 2695446, 1230401 ], [ 2695339, 1230464 ], [ 2695267, 1230486 ], [ 2695261, 1230507 ], [ 2695172, 1230508 ], [ 2695023, 1230551 ], [ 2694930, 1230604 ], [ 2694878, 1230654 ], [ 2694829, 1230667 ], [ 2694598, 1230813 ], [ 2694559, 1230847 ], [ 2694517, 1230965 ], [ 2694462, 1231065 ], [ 2694436, 1231064 ], [ 2694426, 1231076 ], [ 2694437, 1231094 ], [ 2694398, 1231130 ], [ 2694320, 1231112 ], [ 2694299, 1231100 ], [ 2694318, 1231088 ], [ 2694264, 1231070 ], [ 2694246, 1231090 ], [ 2694191, 1231106 ], [ 2694088, 1231176 ], [ 2694047, 1231216 ], [ 2694046, 1231248 ], [ 2694018, 1231234 ], [ 2693931, 1231298 ], [ 2693772, 1231474 ], [ 2693701, 1231620 ], [ 2693731, 1231641 ], [ 2693768, 1231537 ], [ 2693733, 1231645 ], [ 2693626, 1231822 ], [ 2693641, 1231782 ], [ 2693630, 1231776 ], [ 2693557, 1231863 ], [ 2693573, 1231877 ], [ 2693620, 1231837 ], [ 2693589, 1231869 ], [ 2693573, 1231879 ], [ 2693566, 1231873 ], [ 2693538, 1231890 ], [ 2693541, 1231902 ], [ 2693530, 1231897 ], [ 2693505, 1231928 ], [ 2693492, 1231911 ], [ 2693412, 1231967 ], [ 2693365, 1232031 ], [ 2693303, 1232027 ], [ 2693241, 1232051 ], [ 2693114, 1232152 ], [ 2693084, 1232194 ], [ 2693025, 1232234 ], [ 2693017, 1232224 ], [ 2692941, 1232301 ], [ 2692897, 1232323 ], [ 2692863, 1232367 ], [ 2692852, 1232352 ], [ 2692830, 1232371 ], [ 2692796, 1232402 ], [ 2692810, 1232419 ], [ 2692711, 1232519 ], [ 2692696, 1232494 ], [ 2692626, 1232539 ], [ 2692513, 1232686 ], [ 2692538, 1232776 ], [ 2692525, 1232789 ], [ 2692532, 1232843 ], [ 2692465, 1232922 ], [ 2692456, 1232956 ], [ 2692416, 1232969 ], [ 2692401, 1233022 ], [ 2692269, 1233197 ], [ 2692284, 1233322 ], [ 2692153, 1233349 ], [ 2692123, 1233385 ], [ 2692109, 1233364 ], [ 2691968, 1233435 ], [ 2691915, 1233478 ], [ 2691898, 1233618 ], [ 2691876, 1233634 ], [ 2691874, 1233667 ], [ 2691842, 1233643 ], [ 2691835, 1233652 ], [ 2691863, 1233763 ], [ 2691850, 1233768 ], [ 2691855, 1233806 ], [ 2691823, 1233827 ], [ 2691814, 1233861 ], [ 2691803, 1233849 ], [ 2691775, 1233857 ], [ 2691755, 1233889 ], [ 2691739, 1233886 ], [ 2691746, 1233895 ], [ 2691724, 1233891 ], [ 2691593, 1233987 ], [ 2691580, 1233979 ], [ 2691412, 1234058 ], [ 2691145, 1234148 ], [ 2691107, 1234132 ], [ 2690913, 1234123 ], [ 2690895, 1234095 ], [ 2690914, 1234088 ], [ 2690904, 1234037 ], [ 2690885, 1234048 ], [ 2690829, 1233957 ], [ 2690807, 1233940 ], [ 2690795, 1233953 ], [ 2690790, 1233954 ], [ 2690789, 1233932 ], [ 2690706, 1233936 ], [ 2690584, 1233861 ], [ 2690529, 1233877 ], [ 2690533, 1233892 ], [ 2690527, 1233879 ], [ 2690460, 1233896 ], [ 2690462, 1233916 ], [ 2690358, 1233960 ], [ 2690320, 1233951 ], [ 2690245, 1233972 ], [ 2690215, 1233990 ], [ 2690238, 1234010 ], [ 2690203, 1234027 ], [ 2690210, 1234048 ], [ 2690219, 1234043 ], [ 2690140, 1234087 ], [ 2690093, 1234077 ], [ 2690001, 1234100 ], [ 2689958, 1234085 ], [ 2689700, 1234157 ], [ 2689705, 1234165 ], [ 2689605, 1234194 ], [ 2689588, 1234219 ], [ 2689570, 1234215 ], [ 2689470, 1234272 ], [ 2689467, 1234291 ], [ 2689435, 1234309 ], [ 2689443, 1234327 ], [ 2689404, 1234349 ], [ 2689386, 1234342 ], [ 2689396, 1234354 ], [ 2689348, 1234389 ], [ 2689326, 1234378 ], [ 2689317, 1234390 ], [ 2689337, 1234403 ], [ 2689319, 1234400 ], [ 2689297, 1234448 ], [ 2689317, 1234463 ], [ 2689267, 1234494 ], [ 2689278, 1234509 ], [ 2689264, 1234495 ], [ 2688956, 1234535 ], [ 2688743, 1234634 ], [ 2688608, 1234726 ], [ 2688597, 1234720 ], [ 2688607, 1234732 ], [ 2688588, 1234739 ], [ 2688588, 1234758 ], [ 2688445, 1234818 ], [ 2688444, 1234834 ], [ 2688352, 1234867 ], [ 2688323, 1234896 ], [ 2688272, 1234922 ], [ 2688237, 1234915 ], [ 2688187, 1234952 ], [ 2688130, 1234946 ], [ 2688096, 1234975 ], [ 2688052, 1234984 ], [ 2688004, 1235017 ], [ 2687920, 1235141 ], [ 2687858, 1235150 ], [ 2687849, 1235119 ], [ 2687712, 1235191 ], [ 2687723, 1235258 ], [ 2687690, 1235259 ], [ 2687686, 1235250 ], [ 2687714, 1235248 ], [ 2687704, 1235202 ], [ 2687668, 1235208 ], [ 2687670, 1235219 ], [ 2687586, 1235223 ], [ 2687592, 1235237 ], [ 2687582, 1235222 ], [ 2687550, 1235278 ], [ 2687484, 1235278 ], [ 2687347, 1235386 ], [ 2687355, 1235401 ], [ 2687314, 1235421 ], [ 2687269, 1235471 ], [ 2687254, 1235469 ], [ 2687268, 1235477 ], [ 2687264, 1235506 ], [ 2687227, 1235523 ], [ 2687199, 1235603 ], [ 2687177, 1235596 ], [ 2687173, 1235610 ], [ 2687210, 1235629 ], [ 2687195, 1235656 ], [ 2687208, 1235678 ], [ 2687152, 1235769 ], [ 2687152, 1235837 ], [ 2687140, 1235832 ], [ 2687113, 1235868 ], [ 2687034, 1235909 ], [ 2686957, 1236055 ], [ 2686945, 1236036 ], [ 2686935, 1236053 ], [ 2686949, 1236061 ], [ 2686934, 1236091 ], [ 2686807, 1236215 ], [ 2686804, 1236248 ], [ 2686742, 1236287 ], [ 2686664, 1236383 ], [ 2686557, 1236621 ], [ 2686592, 1236636 ], [ 2686585, 1236653 ], [ 2686559, 1236643 ], [ 2686535, 1236731 ], [ 2686581, 1236746 ], [ 2686577, 1236791 ], [ 2686516, 1236817 ], [ 2686502, 1236895 ], [ 2686484, 1236907 ], [ 2686478, 1236968 ], [ 2686498, 1236973 ], [ 2686499, 1237064 ], [ 2686472, 1237179 ], [ 2686409, 1237261 ], [ 2686381, 1237343 ], [ 2686365, 1237341 ], [ 2686375, 1237352 ], [ 2686329, 1237457 ], [ 2686273, 1237482 ], [ 2686293, 1237493 ], [ 2686222, 1237553 ], [ 2686234, 1237562 ], [ 2686189, 1237624 ], [ 2686173, 1237617 ], [ 2686191, 1237645 ], [ 2686182, 1237704 ], [ 2686158, 1237751 ], [ 2686130, 1237750 ], [ 2686131, 1237757 ], [ 2686153, 1237764 ], [ 2686128, 1237847 ], [ 2686115, 1237869 ], [ 2686096, 1237865 ], [ 2686111, 1237877 ], [ 2686091, 1237910 ], [ 2686074, 1237932 ], [ 2686064, 1237926 ], [ 2685983, 1238045 ], [ 2685964, 1238048 ], [ 2685948, 1238173 ], [ 2685926, 1238231 ], [ 2685946, 1238169 ], [ 2685919, 1238161 ], [ 2685908, 1238184 ], [ 2685896, 1238219 ], [ 2685909, 1238226 ], [ 2685886, 1238269 ], [ 2685903, 1238278 ], [ 2685837, 1238410 ], [ 2685818, 1238407 ], [ 2685837, 1238415 ], [ 2685697, 1238623 ], [ 2685670, 1238626 ], [ 2685664, 1238644 ], [ 2685683, 1238633 ], [ 2685679, 1238647 ], [ 2685607, 1238728 ], [ 2685564, 1238809 ], [ 2685534, 1238847 ], [ 2685517, 1238838 ], [ 2685511, 1238849 ], [ 2685527, 1238858 ], [ 2685531, 1238851 ], [ 2685522, 1238890 ], [ 2685436, 1238989 ], [ 2685421, 1239038 ], [ 2685387, 1239056 ], [ 2685344, 1239112 ], [ 2685335, 1239103 ], [ 2685317, 1239146 ], [ 2685280, 1239165 ], [ 2685286, 1239177 ], [ 2685166, 1239291 ], [ 2685174, 1239301 ], [ 2685147, 1239335 ], [ 2685126, 1239332 ], [ 2685136, 1239344 ], [ 2685087, 1239436 ], [ 2685099, 1239443 ], [ 2685080, 1239438 ], [ 2685078, 1239469 ], [ 2685037, 1239496 ], [ 2684999, 1239581 ], [ 2684964, 1239598 ], [ 2684964, 1239620 ], [ 2684923, 1239638 ], [ 2684896, 1239716 ], [ 2684857, 1239746 ], [ 2684800, 1239828 ], [ 2684782, 1239887 ], [ 2684797, 1239940 ], [ 2684757, 1239950 ], [ 2684744, 1240006 ], [ 2684726, 1240007 ], [ 2684726, 1240091 ], [ 2684731, 1240095 ], [ 2684679, 1240320 ], [ 2684675, 1240426 ], [ 2684659, 1240432 ], [ 2684675, 1240441 ], [ 2684678, 1240471 ], [ 2684659, 1240504 ], [ 2684639, 1240492 ], [ 2684588, 1240544 ], [ 2684556, 1240636 ], [ 2684544, 1240723 ], [ 2684560, 1240753 ], [ 2684542, 1240822 ], [ 2684554, 1240827 ], [ 2684529, 1240908 ], [ 2684504, 1240919 ], [ 2684508, 1240937 ], [ 2684527, 1240940 ], [ 2684519, 1241086 ], [ 2684502, 1241141 ], [ 2684404, 1241306 ], [ 2684377, 1241282 ], [ 2684371, 1241294 ], [ 2684396, 1241309 ], [ 2684376, 1241357 ], [ 2684351, 1241343 ], [ 2684351, 1241371 ], [ 2684334, 1241357 ], [ 2684322, 1241371 ], [ 2684359, 1241403 ], [ 2684290, 1241489 ], [ 2684247, 1241582 ], [ 2684235, 1241576 ], [ 2684223, 1241635 ], [ 2684185, 1241692 ], [ 2684163, 1241684 ], [ 2684157, 1241699 ], [ 2684180, 1241710 ], [ 2684145, 1241763 ], [ 2684156, 1241818 ], [ 2684118, 1241812 ], [ 2684116, 1241826 ], [ 2684152, 1241837 ], [ 2684160, 1241905 ], [ 2684133, 1241896 ], [ 2684127, 1241912 ], [ 2684149, 1241917 ], [ 2684119, 1241910 ], [ 2684092, 1242005 ], [ 2684074, 1242032 ], [ 2684051, 1242033 ], [ 2684037, 1242068 ], [ 2684020, 1242062 ], [ 2683991, 1242132 ], [ 2684004, 1242137 ], [ 2683996, 1242183 ], [ 2683942, 1242272 ], [ 2683928, 1242268 ], [ 2683894, 1242402 ], [ 2683866, 1242424 ], [ 2683880, 1242450 ], [ 2683825, 1242567 ], [ 2683846, 1242588 ], [ 2683815, 1242672 ], [ 2683825, 1242693 ], [ 2683806, 1242728 ], [ 2683768, 1242723 ], [ 2683741, 1242777 ], [ 2683748, 1242818 ], [ 2683715, 1242799 ], [ 2683680, 1242866 ], [ 2683719, 1242885 ], [ 2683702, 1242937 ], [ 2683656, 1243023 ], [ 2683659, 1242996 ], [ 2683632, 1242984 ], [ 2683599, 1243022 ], [ 2683631, 1243049 ], [ 2683648, 1243035 ], [ 2683632, 1243055 ], [ 2683610, 1243046 ], [ 2683561, 1243115 ], [ 2683532, 1243098 ], [ 2683534, 1243133 ], [ 2683524, 1243132 ], [ 2683489, 1243187 ], [ 2683495, 1243246 ], [ 2683477, 1243308 ], [ 2683455, 1243309 ], [ 2683465, 1243317 ], [ 2683427, 1243369 ], [ 2683416, 1243426 ], [ 2683384, 1243435 ], [ 2683386, 1243409 ], [ 2683370, 1243401 ], [ 2683361, 1243416 ], [ 2683378, 1243437 ], [ 2683330, 1243478 ], [ 2683246, 1243478 ], [ 2683241, 1243492 ], [ 2683274, 1243509 ], [ 2683248, 1243574 ], [ 2683205, 1243567 ], [ 2683286, 1243626 ], [ 2683289, 1243670 ], [ 2683270, 1243663 ], [ 2683252, 1243612 ], [ 2683208, 1243629 ], [ 2683180, 1243763 ], [ 2683134, 1243880 ], [ 2683145, 1243925 ], [ 2683093, 1243909 ], [ 2683083, 1243940 ], [ 2683062, 1243938 ], [ 2683047, 1243979 ], [ 2683037, 1243976 ], [ 2682984, 1244094 ], [ 2683025, 1244126 ], [ 2682995, 1244288 ], [ 2683009, 1244294 ], [ 2682972, 1244414 ], [ 2682936, 1244405 ], [ 2682972, 1244423 ], [ 2682963, 1244454 ], [ 2682927, 1244461 ], [ 2682934, 1244555 ], [ 2682917, 1244606 ], [ 2682866, 1244599 ], [ 2682840, 1244783 ], [ 2682913, 1244795 ], [ 2682936, 1244821 ], [ 2682889, 1244920 ], [ 2682905, 1245020 ], [ 2682903, 1245248 ], [ 2682912, 1245293 ], [ 2682927, 1245293 ], [ 2682907, 1245296 ], [ 2682919, 1245371 ], [ 2682904, 1245507 ], [ 2682946, 1245571 ], [ 2682961, 1245740 ], [ 2682914, 1245764 ], [ 2682896, 1245873 ], [ 2682926, 1245892 ], [ 2682943, 1245930 ], [ 2682963, 1245931 ], [ 2682955, 1245910 ], [ 2682987, 1245899 ], [ 2682994, 1245918 ], [ 2682978, 1245924 ], [ 2682989, 1245956 ], [ 2682914, 1245959 ], [ 2682899, 1246181 ], [ 2682999, 1246383 ], [ 2682970, 1246433 ], [ 2682979, 1246482 ], [ 2683189, 1246657 ], [ 2683181, 1246681 ], [ 2683198, 1246695 ], [ 2683329, 1246734 ], [ 2683362, 1246753 ], [ 2683375, 1246783 ], [ 2683491, 1246814 ], [ 2683512, 1246797 ], [ 2683557, 1246650 ], [ 2683569, 1246650 ], [ 2683688, 1246363 ], [ 2683730, 1246301 ], [ 2683746, 1246256 ], [ 2683756, 1246193 ], [ 2683756, 1245987 ], [ 2683743, 1245820 ], [ 2683798, 1245810 ], [ 2683860, 1245680 ], [ 2683874, 1245683 ], [ 2683891, 1245655 ], [ 2683913, 1245582 ], [ 2683955, 1245538 ], [ 2684013, 1245428 ], [ 2683988, 1245322 ], [ 2684016, 1245294 ], [ 2683994, 1245281 ], [ 2684002, 1245268 ], [ 2684026, 1245279 ], [ 2684062, 1245246 ], [ 2684190, 1245247 ], [ 2684226, 1245226 ], [ 2684301, 1245231 ], [ 2684338, 1245214 ], [ 2684365, 1245233 ], [ 2684397, 1245209 ], [ 2684451, 1245204 ], [ 2684563, 1245134 ], [ 2684594, 1245152 ], [ 2684633, 1245142 ], [ 2684783, 1244954 ], [ 2684799, 1244848 ], [ 2684829, 1244821 ], [ 2684865, 1244841 ], [ 2684872, 1244831 ], [ 2684825, 1244789 ], [ 2684858, 1244743 ], [ 2684875, 1244752 ], [ 2684884, 1244739 ], [ 2684857, 1244736 ], [ 2684898, 1244651 ], [ 2684936, 1244671 ], [ 2684943, 1244661 ], [ 2684900, 1244638 ], [ 2684953, 1244555 ], [ 2685001, 1244513 ], [ 2685047, 1244537 ], [ 2685113, 1244459 ], [ 2685222, 1244176 ], [ 2685239, 1244166 ], [ 2685247, 1244081 ], [ 2685260, 1244072 ], [ 2685249, 1244070 ], [ 2685255, 1243963 ], [ 2685290, 1243794 ], [ 2685304, 1243797 ], [ 2685309, 1243773 ], [ 2685296, 1243768 ], [ 2685321, 1243680 ], [ 2685327, 1243666 ], [ 2685334, 1243668 ], [ 2685319, 1243702 ], [ 2685333, 1243712 ], [ 2685354, 1243666 ], [ 2685339, 1243659 ], [ 2685363, 1243643 ], [ 2685367, 1243605 ], [ 2685385, 1243595 ], [ 2685376, 1243583 ], [ 2685394, 1243568 ], [ 2685426, 1243409 ], [ 2685435, 1243430 ], [ 2685461, 1243342 ], [ 2685566, 1243201 ], [ 2685637, 1242966 ], [ 2685627, 1242961 ], [ 2685645, 1242950 ], [ 2685726, 1242762 ], [ 2685708, 1242755 ], [ 2685709, 1242723 ], [ 2685747, 1242545 ], [ 2685720, 1242527 ], [ 2685748, 1242532 ], [ 2685810, 1242379 ], [ 2685880, 1242277 ], [ 2685897, 1242287 ], [ 2685910, 1242266 ], [ 2685895, 1242253 ], [ 2685888, 1242261 ], [ 2685886, 1242260 ], [ 2685905, 1242236 ], [ 2685915, 1242242 ], [ 2685922, 1242209 ], [ 2685942, 1242209 ], [ 2685927, 1242199 ], [ 2685934, 1242187 ], [ 2685948, 1242196 ], [ 2685939, 1242180 ], [ 2685961, 1242169 ], [ 2685997, 1242058 ], [ 2686016, 1242052 ], [ 2686038, 1241987 ], [ 2686028, 1241971 ], [ 2686047, 1241859 ], [ 2686110, 1241773 ], [ 2686131, 1241695 ], [ 2686112, 1241707 ], [ 2686112, 1241691 ], [ 2686124, 1241667 ], [ 2686136, 1241621 ], [ 2686138, 1241619 ], [ 2686126, 1241662 ], [ 2686167, 1241670 ], [ 2686177, 1241632 ], [ 2686160, 1241625 ], [ 2686175, 1241570 ], [ 2686159, 1241486 ], [ 2686153, 1241487 ], [ 2686139, 1241469 ], [ 2686157, 1241470 ], [ 2686064, 1241406 ], [ 2686045, 1241367 ], [ 2686087, 1241317 ], [ 2686110, 1241316 ], [ 2686140, 1241247 ], [ 2686177, 1241207 ], [ 2686196, 1241158 ], [ 2686195, 1241121 ], [ 2686186, 1241118 ], [ 2686180, 1241101 ], [ 2686180, 1241095 ], [ 2686200, 1241116 ], [ 2686202, 1241042 ], [ 2686257, 1240940 ], [ 2686260, 1240902 ], [ 2686275, 1240904 ], [ 2686281, 1240884 ], [ 2686297, 1240892 ], [ 2686314, 1240868 ], [ 2686300, 1240860 ], [ 2686353, 1240790 ], [ 2686343, 1240784 ], [ 2686351, 1240770 ], [ 2686344, 1240784 ], [ 2686370, 1240796 ], [ 2686383, 1240771 ], [ 2686363, 1240752 ], [ 2686358, 1240761 ], [ 2686363, 1240751 ], [ 2686383, 1240724 ], [ 2686395, 1240728 ], [ 2686434, 1240669 ], [ 2686442, 1240673 ], [ 2686477, 1240602 ], [ 2686475, 1240592 ], [ 2686479, 1240584 ], [ 2686474, 1240579 ], [ 2686480, 1240584 ], [ 2686480, 1240595 ], [ 2686492, 1240586 ], [ 2686478, 1240573 ], [ 2686479, 1240571 ], [ 2686493, 1240584 ], [ 2686501, 1240574 ], [ 2686647, 1240344 ], [ 2686667, 1240348 ], [ 2686785, 1240239 ], [ 2686797, 1240200 ], [ 2686841, 1240176 ], [ 2686934, 1240072 ], [ 2686973, 1240084 ], [ 2686986, 1239987 ], [ 2687008, 1239975 ], [ 2687022, 1239896 ], [ 2686999, 1239837 ], [ 2687007, 1239783 ], [ 2687029, 1239734 ], [ 2687045, 1239740 ], [ 2687052, 1239699 ], [ 2687141, 1239615 ], [ 2687141, 1239654 ], [ 2687171, 1239627 ], [ 2687181, 1239609 ], [ 2687162, 1239597 ], [ 2687151, 1239607 ], [ 2687193, 1239563 ], [ 2687224, 1239507 ], [ 2687215, 1239501 ], [ 2687239, 1239489 ], [ 2687279, 1239416 ], [ 2687392, 1239378 ], [ 2687384, 1239357 ], [ 2687427, 1239330 ], [ 2687438, 1239347 ], [ 2687434, 1239326 ], [ 2687462, 1239308 ], [ 2687478, 1239317 ], [ 2687481, 1239288 ], [ 2687541, 1239257 ], [ 2687569, 1239181 ], [ 2687584, 1239184 ], [ 2687558, 1239172 ], [ 2687563, 1239151 ], [ 2687650, 1238973 ], [ 2687648, 1238931 ], [ 2687663, 1238918 ], [ 2687650, 1238915 ], [ 2687689, 1238793 ], [ 2687738, 1238710 ], [ 2687742, 1238731 ], [ 2687861, 1238534 ], [ 2688105, 1238297 ], [ 2688217, 1238145 ], [ 2688313, 1238058 ], [ 2688305, 1238042 ], [ 2688330, 1238032 ], [ 2688328, 1238010 ], [ 2688408, 1237913 ], [ 2688505, 1237732 ], [ 2688581, 1237651 ], [ 2688597, 1237610 ], [ 2688609, 1237616 ], [ 2688626, 1237537 ], [ 2688642, 1237539 ], [ 2688626, 1237529 ], [ 2688646, 1237488 ], [ 2688776, 1237381 ], [ 2688824, 1237310 ], [ 2688816, 1237289 ], [ 2688964, 1237079 ], [ 2688956, 1237072 ], [ 2688990, 1237063 ], [ 2689004, 1237038 ], [ 2689010, 1237052 ], [ 2689018, 1237043 ], [ 2689002, 1237023 ], [ 2689034, 1236993 ], [ 2689067, 1236993 ], [ 2689233, 1236850 ], [ 2689313, 1236799 ], [ 2689325, 1236806 ], [ 2689332, 1236775 ], [ 2689339, 1236783 ], [ 2689439, 1236729 ], [ 2689532, 1236651 ], [ 2689547, 1236662 ], [ 2689545, 1236651 ], [ 2689575, 1236644 ], [ 2689585, 1236657 ], [ 2689591, 1236633 ], [ 2689690, 1236520 ], [ 2689705, 1236538 ], [ 2689744, 1236509 ], [ 2689810, 1236497 ], [ 2689839, 1236473 ], [ 2689830, 1236456 ], [ 2689884, 1236432 ], [ 2689902, 1236405 ], [ 2689921, 1236429 ], [ 2690035, 1236286 ], [ 2690134, 1236238 ], [ 2690188, 1236259 ], [ 2690339, 1236226 ], [ 2690344, 1236246 ], [ 2690345, 1236229 ], [ 2690432, 1236211 ], [ 2690431, 1236233 ], [ 2690471, 1236213 ], [ 2690472, 1236225 ], [ 2690590, 1236200 ], [ 2690588, 1236188 ], [ 2690654, 1236154 ], [ 2690713, 1236041 ], [ 2690702, 1236030 ], [ 2690711, 1236020 ], [ 2690721, 1236040 ], [ 2690798, 1235894 ], [ 2690814, 1235925 ], [ 2690845, 1235898 ], [ 2690959, 1235870 ], [ 2690940, 1235875 ], [ 2690964, 1235896 ], [ 2691000, 1235885 ], [ 2690993, 1235868 ], [ 2690969, 1235868 ], [ 2691015, 1235860 ], [ 2691020, 1235870 ], [ 2691118, 1235819 ], [ 2691126, 1235838 ], [ 2691157, 1235805 ], [ 2691166, 1235824 ], [ 2691214, 1235821 ], [ 2691217, 1235839 ], [ 2691295, 1235839 ], [ 2691284, 1235870 ], [ 2691308, 1235888 ], [ 2691317, 1235862 ], [ 2691335, 1235862 ], [ 2691333, 1235894 ], [ 2691343, 1235873 ], [ 2691500, 1235890 ], [ 2691500, 1235829 ], [ 2691522, 1235797 ], [ 2691614, 1235785 ], [ 2691640, 1235799 ], [ 2691633, 1235785 ], [ 2691670, 1235768 ], [ 2691713, 1235651 ], [ 2691803, 1235579 ], [ 2691799, 1235569 ], [ 2691847, 1235558 ], [ 2691854, 1235573 ], [ 2691872, 1235568 ], [ 2691873, 1235551 ], [ 2691858, 1235555 ], [ 2691875, 1235550 ], [ 2691881, 1235569 ], [ 2691896, 1235567 ], [ 2691918, 1235561 ], [ 2691922, 1235542 ], [ 2691931, 1235571 ], [ 2691930, 1235542 ], [ 2692037, 1235520 ], [ 2692040, 1235551 ], [ 2692046, 1235517 ], [ 2692103, 1235512 ], [ 2692109, 1235490 ], [ 2692115, 1235532 ], [ 2692148, 1235523 ], [ 2692148, 1235503 ], [ 2692180, 1235517 ], [ 2692183, 1235505 ], [ 2692270, 1235505 ], [ 2692371, 1235534 ], [ 2692443, 1235515 ], [ 2692414, 1235528 ], [ 2692413, 1235562 ], [ 2692460, 1235557 ], [ 2692469, 1235525 ], [ 2692456, 1235518 ], [ 2692487, 1235477 ], [ 2692493, 1235505 ], [ 2692506, 1235501 ], [ 2692491, 1235473 ], [ 2692552, 1235405 ], [ 2692550, 1235360 ], [ 2692667, 1235277 ], [ 2692709, 1235295 ], [ 2692732, 1235294 ], [ 2692732, 1235271 ], [ 2692710, 1235270 ], [ 2692734, 1235265 ], [ 2692750, 1235297 ], [ 2692920, 1235291 ], [ 2692953, 1235256 ], [ 2692945, 1235229 ], [ 2693190, 1235125 ], [ 2693183, 1235110 ], [ 2693358, 1235036 ], [ 2693418, 1234989 ], [ 2693527, 1234951 ], [ 2693549, 1234951 ], [ 2693575, 1234983 ], [ 2693629, 1234965 ], [ 2693618, 1234929 ], [ 2693565, 1234949 ], [ 2693562, 1234946 ], [ 2693627, 1234920 ], [ 2693654, 1234924 ], [ 2693629, 1234927 ], [ 2693654, 1235001 ], [ 2693683, 1234992 ], [ 2693653, 1234946 ], [ 2693707, 1234929 ], [ 2693710, 1234949 ], [ 2693735, 1234938 ], [ 2693747, 1234930 ], [ 2693728, 1234896 ], [ 2693761, 1234879 ], [ 2693790, 1234886 ], [ 2693854, 1234843 ], [ 2693892, 1234853 ], [ 2693884, 1234838 ], [ 2693918, 1234844 ], [ 2694029, 1234811 ], [ 2694035, 1234726 ], [ 2694066, 1234753 ], [ 2694152, 1234701 ], [ 2694160, 1234689 ], [ 2694145, 1234662 ], [ 2694147, 1234661 ], [ 2694170, 1234683 ], [ 2694254, 1234636 ], [ 2694266, 1234648 ], [ 2694258, 1234634 ], [ 2694286, 1234619 ], [ 2694298, 1234643 ], [ 2694318, 1234642 ], [ 2694499, 1234549 ], [ 2694542, 1234504 ], [ 2694552, 1234527 ], [ 2694564, 1234521 ], [ 2694551, 1234497 ], [ 2694573, 1234480 ], [ 2694582, 1234494 ], [ 2694608, 1234466 ], [ 2694582, 1234441 ], [ 2694585, 1234435 ], [ 2694583, 1234441 ], [ 2694594, 1234441 ], [ 2694621, 1234393 ], [ 2694655, 1234408 ], [ 2694639, 1234397 ], [ 2694655, 1234358 ], [ 2694623, 1234341 ], [ 2694655, 1234285 ], [ 2694677, 1234266 ], [ 2694658, 1234289 ], [ 2694700, 1234315 ], [ 2694723, 1234279 ], [ 2694697, 1234255 ], [ 2694774, 1234194 ], [ 2694869, 1234162 ], [ 2694878, 1234195 ], [ 2694892, 1234193 ], [ 2694891, 1234165 ], [ 2694966, 1234155 ], [ 2695038, 1234071 ], [ 2695049, 1234062 ], [ 2695052, 1234062 ], [ 2695044, 1234084 ], [ 2695084, 1234057 ], [ 2695218, 1233930 ], [ 2695239, 1233881 ], [ 2695253, 1233922 ], [ 2695267, 1233913 ], [ 2695254, 1233894 ], [ 2695383, 1233842 ], [ 2695496, 1233742 ], [ 2695510, 1233767 ], [ 2695539, 1233757 ], [ 2695522, 1233718 ], [ 2695536, 1233727 ], [ 2695530, 1233714 ], [ 2695594, 1233680 ], [ 2695609, 1233716 ], [ 2695944, 1233625 ], [ 2695975, 1233580 ], [ 2695955, 1233553 ], [ 2695986, 1233531 ], [ 2696044, 1233591 ], [ 2696058, 1233582 ], [ 2696029, 1233556 ], [ 2696032, 1233541 ], [ 2696130, 1233494 ], [ 2696199, 1233429 ], [ 2696256, 1233423 ], [ 2696252, 1233397 ], [ 2696301, 1233302 ], [ 2696279, 1233290 ], [ 2696314, 1233212 ], [ 2696327, 1233213 ], [ 2696395, 1233113 ], [ 2696404, 1233070 ], [ 2696416, 1233075 ], [ 2696449, 1233029 ], [ 2696519, 1232982 ], [ 2696552, 1233008 ], [ 2696667, 1232856 ], [ 2696675, 1232865 ], [ 2696724, 1232833 ], [ 2696724, 1232818 ], [ 2696748, 1232808 ], [ 2696768, 1232857 ], [ 2696790, 1232851 ], [ 2696778, 1232823 ], [ 2696766, 1232826 ], [ 2696856, 1232767 ], [ 2696823, 1232792 ], [ 2696845, 1232822 ], [ 2696908, 1232802 ], [ 2696904, 1232771 ], [ 2696880, 1232759 ], [ 2696911, 1232752 ], [ 2696928, 1232777 ], [ 2696972, 1232729 ], [ 2697023, 1232713 ], [ 2697033, 1232753 ], [ 2697052, 1232747 ], [ 2697068, 1232735 ], [ 2697041, 1232712 ], [ 2697117, 1232675 ], [ 2697235, 1232659 ], [ 2697247, 1232683 ], [ 2697311, 1232690 ], [ 2697325, 1232705 ], [ 2697334, 1232688 ], [ 2697462, 1232673 ], [ 2697473, 1232665 ], [ 2697460, 1232629 ], [ 2697493, 1232611 ], [ 2697502, 1232623 ], [ 2697565, 1232623 ], [ 2697560, 1232601 ], [ 2697613, 1232572 ], [ 2697624, 1232586 ], [ 2697733, 1232482 ], [ 2697755, 1232467 ], [ 2697768, 1232475 ], [ 2697759, 1232464 ], [ 2697787, 1232444 ], [ 2698043, 1232326 ], [ 2698083, 1232285 ], [ 2698079, 1232267 ], [ 2698082, 1232264 ], [ 2698099, 1232280 ], [ 2698085, 1232260 ], [ 2698111, 1232227 ], [ 2698181, 1232204 ], [ 2698218, 1232200 ], [ 2698244, 1232225 ], [ 2698205, 1232224 ], [ 2698241, 1232269 ], [ 2698255, 1232270 ], [ 2698254, 1232238 ], [ 2698289, 1232241 ], [ 2698286, 1232221 ], [ 2698301, 1232219 ], [ 2698308, 1232237 ], [ 2698313, 1232216 ], [ 2698344, 1232215 ], [ 2698357, 1232251 ], [ 2698376, 1232255 ], [ 2698388, 1232224 ], [ 2698405, 1232230 ], [ 2698398, 1232252 ], [ 2698410, 1232253 ], [ 2698413, 1232231 ], [ 2698451, 1232259 ], [ 2698491, 1232263 ], [ 2698488, 1232304 ], [ 2698498, 1232277 ], [ 2698496, 1232295 ], [ 2698527, 1232304 ], [ 2698528, 1232290 ], [ 2698640, 1232318 ], [ 2698633, 1232342 ], [ 2698699, 1232354 ], [ 2698701, 1232342 ], [ 2698888, 1232296 ], [ 2698905, 1232277 ], [ 2698910, 1232288 ], [ 2698933, 1232275 ], [ 2698934, 1232290 ], [ 2699025, 1232241 ], [ 2699103, 1232265 ], [ 2699095, 1232281 ], [ 2699238, 1232348 ], [ 2699301, 1232333 ], [ 2699300, 1232303 ], [ 2699314, 1232304 ], [ 2699323, 1232341 ], [ 2699357, 1232309 ], [ 2699452, 1232321 ], [ 2699463, 1232370 ], [ 2699550, 1232353 ], [ 2699565, 1232363 ], [ 2699564, 1232348 ], [ 2699655, 1232330 ], [ 2699702, 1232339 ], [ 2699725, 1232321 ], [ 2699745, 1232338 ], [ 2699795, 1232313 ], [ 2699823, 1232268 ], [ 2699847, 1232258 ], [ 2699854, 1232292 ], [ 2699868, 1232264 ], [ 2699895, 1232255 ], [ 2699899, 1232268 ], [ 2699916, 1232234 ], [ 2699939, 1232233 ], [ 2699921, 1232254 ], [ 2699929, 1232282 ], [ 2699989, 1232259 ], [ 2699983, 1232280 ], [ 2699997, 1232293 ], [ 2700015, 1232280 ], [ 2700011, 1232294 ], [ 2700180, 1232303 ], [ 2700187, 1232319 ], [ 2700306, 1232327 ], [ 2700310, 1232316 ], [ 2700313, 1232329 ], [ 2700517, 1232339 ], [ 2700792, 1232381 ], [ 2700871, 1232353 ], [ 2701019, 1232353 ], [ 2701021, 1232333 ], [ 2701031, 1232360 ], [ 2701122, 1232368 ], [ 2701187, 1232347 ], [ 2701192, 1232363 ], [ 2701268, 1232312 ], [ 2701293, 1232330 ], [ 2701335, 1232325 ], [ 2701353, 1232316 ], [ 2701344, 1232301 ], [ 2701359, 1232307 ], [ 2701369, 1232273 ], [ 2701410, 1232292 ], [ 2701444, 1232277 ], [ 2701490, 1232284 ], [ 2701495, 1232294 ], [ 2701447, 1232298 ], [ 2701515, 1232345 ], [ 2701527, 1232338 ], [ 2701520, 1232359 ], [ 2701526, 1232346 ], [ 2701608, 1232367 ], [ 2701664, 1232399 ], [ 2701716, 1232457 ], [ 2701905, 1232419 ], [ 2702045, 1232340 ], [ 2702039, 1232355 ], [ 2702115, 1232355 ], [ 2702139, 1232369 ], [ 2702201, 1232486 ], [ 2702318, 1232526 ], [ 2702400, 1232584 ], [ 2702474, 1232769 ], [ 2702550, 1232853 ], [ 2702630, 1232895 ], [ 2702680, 1232900 ], [ 2702736, 1232882 ], [ 2702755, 1232902 ], [ 2703763, 1230812 ], [ 2702605, 1231067 ], [ 2701387, 1230633 ], [ 2698623, 1229778 ], [ 2696857, 1228855 ] ], [ [ 2685696, 1242817 ], [ 2685696, 1242819 ], [ 2685695, 1242819 ], [ 2685696, 1242817 ] ], [ [ 2695382, 1233834 ], [ 2695380, 1233837 ], [ 2695379, 1233836 ], [ 2695382, 1233834 ] ], [ [ 2688594, 1237616 ], [ 2688590, 1237617 ], [ 2688592, 1237615 ], [ 2688594, 1237616 ] ], [ [ 2684732, 1240069 ], [ 2684732, 1240081 ], [ 2684731, 1240082 ], [ 2684732, 1240069 ] ], [ [ 2691732, 1233897 ], [ 2691732, 1233902 ], [ 2691730, 1233900 ], [ 2691732, 1233897 ] ], [ [ 2689044, 1236984 ], [ 2689036, 1236992 ], [ 2689035, 1236992 ], [ 2689044, 1236984 ] ], [ [ 2697539, 1232606 ], [ 2697541, 1232611 ], [ 2697540, 1232611 ], [ 2697539, 1232606 ] ], [ [ 2685403, 1243482 ], [ 2685407, 1243487 ], [ 2685403, 1243486 ], [ 2685403, 1243482 ] ], [ [ 2686132, 1237754 ], [ 2686138, 1237759 ], [ 2686131, 1237757 ], [ 2686132, 1237754 ] ], [ [ 2684730, 1240033 ], [ 2684734, 1240037 ], [ 2684730, 1240037 ], [ 2684730, 1240033 ] ], [ [ 2694142, 1231141 ], [ 2694141, 1231147 ], [ 2694138, 1231144 ], [ 2694142, 1231141 ] ], [ [ 2685885, 1242267 ], [ 2685880, 1242276 ], [ 2685882, 1242264 ], [ 2685885, 1242267 ] ], [ [ 2694408, 1231130 ], [ 2694406, 1231135 ], [ 2694403, 1231131 ], [ 2694408, 1231130 ] ], [ [ 2685236, 1244101 ], [ 2685240, 1244108 ], [ 2685236, 1244107 ], [ 2685236, 1244101 ] ], [ [ 2683494, 1243180 ], [ 2683497, 1243187 ], [ 2683492, 1243184 ], [ 2683494, 1243180 ] ], [ [ 2684004, 1245290 ], [ 2684004, 1245298 ], [ 2684000, 1245295 ], [ 2684004, 1245290 ] ], [ [ 2691073, 1234165 ], [ 2691081, 1234159 ], [ 2691082, 1234162 ], [ 2691073, 1234165 ] ], [ [ 2692025, 1233429 ], [ 2692026, 1233438 ], [ 2692021, 1233431 ], [ 2692025, 1233429 ] ], [ [ 2684027, 1245255 ], [ 2684030, 1245266 ], [ 2684024, 1245258 ], [ 2684027, 1245255 ] ], [ [ 2682995, 1244088 ], [ 2683001, 1244096 ], [ 2682993, 1244092 ], [ 2682995, 1244088 ] ], [ [ 2683931, 1242311 ], [ 2683934, 1242320 ], [ 2683928, 1242318 ], [ 2683931, 1242311 ] ], [ [ 2683611, 1246486 ], [ 2683616, 1246494 ], [ 2683608, 1246491 ], [ 2683611, 1246486 ] ], [ [ 2682916, 1246184 ], [ 2682923, 1246191 ], [ 2682915, 1246190 ], [ 2682916, 1246184 ] ], [ [ 2683732, 1246125 ], [ 2683740, 1246119 ], [ 2683740, 1246125 ], [ 2683732, 1246125 ] ], [ [ 2692520, 1232870 ], [ 2692527, 1232878 ], [ 2692519, 1232874 ], [ 2692520, 1232870 ] ], [ [ 2683033, 1243996 ], [ 2683043, 1244003 ], [ 2683032, 1243999 ], [ 2683033, 1243996 ] ], [ [ 2683001, 1244068 ], [ 2683006, 1244078 ], [ 2682998, 1244074 ], [ 2683001, 1244068 ] ], [ [ 2683513, 1243155 ], [ 2683518, 1243166 ], [ 2683510, 1243161 ], [ 2683513, 1243155 ] ], [ [ 2685514, 1238844 ], [ 2685521, 1238854 ], [ 2685512, 1238849 ], [ 2685514, 1238844 ] ], [ [ 2691930, 1233673 ], [ 2691932, 1233683 ], [ 2691926, 1233681 ], [ 2691930, 1233673 ] ], [ [ 2692136, 1233389 ], [ 2692125, 1233387 ], [ 2692133, 1233383 ], [ 2692136, 1233389 ] ], [ [ 2702475, 1232670 ], [ 2702472, 1232682 ], [ 2702467, 1232676 ], [ 2702475, 1232670 ] ], [ [ 2683061, 1246517 ], [ 2683076, 1246510 ], [ 2683067, 1246522 ], [ 2683061, 1246517 ] ], [ [ 2689737, 1234151 ], [ 2689714, 1234165 ], [ 2689709, 1234160 ], [ 2689737, 1234151 ] ], [ [ 2684660, 1240513 ], [ 2684642, 1240537 ], [ 2684652, 1240504 ], [ 2684660, 1240513 ] ], [ [ 2686967, 1240055 ], [ 2686950, 1240075 ], [ 2686957, 1240052 ], [ 2686967, 1240055 ] ], [ [ 2688596, 1237568 ], [ 2688598, 1237573 ], [ 2688585, 1237596 ], [ 2688596, 1237568 ] ], [ [ 2684602, 1240570 ], [ 2684643, 1240539 ], [ 2684609, 1240576 ], [ 2684602, 1240570 ] ], [ [ 2684313, 1241496 ], [ 2684300, 1241505 ], [ 2684294, 1241496 ], [ 2684303, 1241488 ], [ 2684313, 1241496 ] ], [ [ 2692148, 1235485 ], [ 2692147, 1235495 ], [ 2692112, 1235490 ], [ 2692111, 1235486 ], [ 2692148, 1235485 ] ], [ [ 2684060, 1242064 ], [ 2684063, 1242086 ], [ 2684053, 1242084 ], [ 2684060, 1242064 ] ], [ [ 2693741, 1231606 ], [ 2693728, 1231620 ], [ 2693742, 1231592 ], [ 2693741, 1231606 ] ], [ [ 2685589, 1238819 ], [ 2685562, 1238879 ], [ 2685548, 1238879 ], [ 2685559, 1238875 ], [ 2685589, 1238819 ] ], [ [ 2696572, 1232936 ], [ 2696562, 1232936 ], [ 2696516, 1232978 ], [ 2696561, 1232932 ], [ 2696572, 1232936 ] ], [ [ 2685281, 1239204 ], [ 2685258, 1239224 ], [ 2685251, 1239218 ], [ 2685272, 1239196 ], [ 2685281, 1239204 ] ], [ [ 2682950, 1246209 ], [ 2682963, 1246224 ], [ 2682950, 1246236 ], [ 2682937, 1246221 ], [ 2682950, 1246209 ] ], [ [ 2682964, 1246241 ], [ 2682977, 1246229 ], [ 2682990, 1246245 ], [ 2682977, 1246256 ], [ 2682964, 1246241 ] ], [ [ 2685648, 1238759 ], [ 2685619, 1238819 ], [ 2685589, 1238818 ], [ 2685615, 1238813 ], [ 2685640, 1238746 ], [ 2685648, 1238759 ] ], [ [ 2687600, 1235260 ], [ 2687674, 1235236 ], [ 2687675, 1235246 ], [ 2687600, 1235260 ] ], [ [ 2682985, 1245989 ], [ 2682977, 1246098 ], [ 2682936, 1246149 ], [ 2682973, 1246097 ], [ 2682985, 1245989 ] ], [ [ 2683714, 1246249 ], [ 2683737, 1246246 ], [ 2683719, 1246228 ], [ 2683741, 1246233 ], [ 2683744, 1246220 ], [ 2683723, 1246211 ], [ 2683748, 1246217 ], [ 2683733, 1246285 ], [ 2683708, 1246279 ], [ 2683731, 1246280 ], [ 2683734, 1246267 ], [ 2683712, 1246262 ], [ 2683735, 1246253 ], [ 2683714, 1246249 ] ], [ [ 2684943, 1244487 ], [ 2684988, 1244514 ], [ 2684939, 1244491 ], [ 2684893, 1244537 ], [ 2684907, 1244564 ], [ 2684874, 1244622 ], [ 2684863, 1244614 ], [ 2684901, 1244563 ], [ 2684885, 1244533 ], [ 2684943, 1244487 ] ], [ [ 2689189, 1234518 ], [ 2689188, 1234546 ], [ 2689130, 1234545 ], [ 2689131, 1234516 ], [ 2689189, 1234518 ] ], [ [ 2686948, 1236075 ], [ 2686960, 1236083 ], [ 2686937, 1236116 ], [ 2686953, 1236129 ], [ 2686985, 1236081 ], [ 2686998, 1236090 ], [ 2686958, 1236149 ], [ 2686919, 1236114 ], [ 2686948, 1236075 ] ], [ [ 2682983, 1244898 ], [ 2682957, 1244939 ], [ 2682936, 1244932 ], [ 2682950, 1244871 ], [ 2682984, 1244864 ], [ 2682983, 1244898 ] ] ] ] } },
{ "type": "Feature", "properties": { "gewaessername": "Pfäffikersee" }, "geometry": { "type": "MultiPolygon", "coordinates": [ [ [ [ 2700901, 1246701 ], [ 2700912, 1246711 ], [ 2700914, 1246709 ], [ 2700901, 1246701 ] ] ], [ [ [ 2700911, 1246690 ], [ 2700937, 1246716 ], [ 2700916, 1246715 ], [ 2700941, 1246745 ], [ 2701014, 1246765 ], [ 2701017, 1246784 ], [ 2701095, 1246811 ], [ 2701218, 1246782 ], [ 2701316, 1246817 ], [ 2701368, 1246804 ], [ 2701422, 1246764 ], [ 2701553, 1246590 ], [ 2701686, 1246312 ], [ 2701772, 1246199 ], [ 2701768, 1246178 ], [ 2701817, 1246129 ], [ 2701834, 1246017 ], [ 2701878, 1245977 ], [ 2701926, 1245868 ], [ 2701940, 1245684 ], [ 2701970, 1245645 ], [ 2702103, 1245552 ], [ 2702212, 1245389 ], [ 2702254, 1245247 ], [ 2702253, 1245141 ], [ 2702335, 1245107 ], [ 2702381, 1245003 ], [ 2702355, 1244897 ], [ 2702298, 1244763 ], [ 2702262, 1244739 ], [ 2702211, 1244657 ], [ 2702140, 1244614 ], [ 2702061, 1244590 ], [ 2702074, 1244565 ], [ 2702189, 1244545 ], [ 2702197, 1244528 ], [ 2702167, 1244543 ], [ 2702133, 1244537 ], [ 2702138, 1244522 ], [ 2702190, 1244508 ], [ 2702113, 1244510 ], [ 2702145, 1244501 ], [ 2702153, 1244482 ], [ 2702096, 1244422 ], [ 2702111, 1244397 ], [ 2702147, 1244403 ], [ 2702201, 1244382 ], [ 2702207, 1244336 ], [ 2702173, 1244305 ], [ 2702147, 1244315 ], [ 2702113, 1244290 ], [ 2702035, 1244276 ], [ 2702033, 1244286 ], [ 2702034, 1244276 ], [ 2701939, 1244302 ], [ 2701886, 1244337 ], [ 2701832, 1244341 ], [ 2701753, 1244309 ], [ 2701721, 1244260 ], [ 2701624, 1244203 ], [ 2701520, 1244198 ], [ 2701419, 1244214 ], [ 2701368, 1244206 ], [ 2701356, 1244176 ], [ 2701321, 1244199 ], [ 2701271, 1244175 ], [ 2701262, 1244143 ], [ 2701229, 1244151 ], [ 2701158, 1244122 ], [ 2701067, 1244156 ], [ 2700997, 1244226 ], [ 2700972, 1244275 ], [ 2700973, 1244344 ], [ 2700980, 1244368 ], [ 2701003, 1244380 ], [ 2700973, 1244459 ], [ 2700979, 1244576 ], [ 2700963, 1244706 ], [ 2700918, 1244864 ], [ 2700877, 1244919 ], [ 2700854, 1245047 ], [ 2700861, 1245128 ], [ 2700892, 1245206 ], [ 2700813, 1245290 ], [ 2700680, 1245595 ], [ 2700635, 1245662 ], [ 2700658, 1245786 ], [ 2700689, 1245858 ], [ 2700690, 1245910 ], [ 2700496, 1245993 ], [ 2700429, 1246109 ], [ 2700436, 1246164 ], [ 2700478, 1246238 ], [ 2700483, 1246363 ], [ 2700545, 1246468 ], [ 2700608, 1246473 ], [ 2700633, 1246548 ], [ 2700689, 1246598 ], [ 2700869, 1246634 ], [ 2700902, 1246699 ], [ 2700911, 1246690 ] ] ] ] } },
{ "type": "Feature", "properties": { "gewaessername": "Greifensee" }, "geometry": { "type": "Polygon", "coordinates": [ [ [ 2691699, 1246700 ], [ 2691689, 1246795 ], [ 2691732, 1246927 ], [ 2691684, 1246959 ], [ 2691666, 1247025 ], [ 2691737, 1247098 ], [ 2691780, 1247092 ], [ 2691815, 1247066 ], [ 2691835, 1247072 ], [ 2691753, 1247243 ], [ 2691726, 1247367 ], [ 2691742, 1247428 ], [ 2691927, 1247597 ], [ 2692003, 1247571 ], [ 2692186, 1247659 ], [ 2692361, 1247707 ], [ 2692466, 1247679 ], [ 2692548, 1247619 ], [ 2692606, 1247625 ], [ 2692693, 1247518 ], [ 2692868, 1247384 ], [ 2692920, 1247325 ], [ 2692986, 1247174 ], [ 2693105, 1246975 ], [ 2693306, 1246763 ], [ 2693343, 1246752 ], [ 2693389, 1246693 ], [ 2693380, 1246684 ], [ 2693393, 1246691 ], [ 2693407, 1246669 ], [ 2693398, 1246647 ], [ 2693427, 1246665 ], [ 2693402, 1246641 ], [ 2693426, 1246625 ], [ 2693431, 1246597 ], [ 2693812, 1246487 ], [ 2693897, 1246391 ], [ 2693933, 1246329 ], [ 2693932, 1246299 ], [ 2693991, 1246248 ], [ 2694021, 1246196 ], [ 2694112, 1246124 ], [ 2694127, 1246088 ], [ 2694126, 1246023 ], [ 2694181, 1245859 ], [ 2694346, 1245644 ], [ 2694524, 1245330 ], [ 2694525, 1245282 ], [ 2694487, 1245285 ], [ 2694462, 1245249 ], [ 2694491, 1245196 ], [ 2694523, 1245164 ], [ 2694546, 1245163 ], [ 2694535, 1245073 ], [ 2694575, 1244978 ], [ 2694544, 1244813 ], [ 2694557, 1244732 ], [ 2694545, 1244668 ], [ 2694561, 1244616 ], [ 2694545, 1244555 ], [ 2694570, 1244497 ], [ 2694590, 1244362 ], [ 2694607, 1244361 ], [ 2694625, 1244312 ], [ 2694627, 1244223 ], [ 2694658, 1244200 ], [ 2694680, 1244153 ], [ 2694687, 1244094 ], [ 2694827, 1243920 ], [ 2694952, 1243811 ], [ 2695001, 1243744 ], [ 2695060, 1243721 ], [ 2695172, 1243717 ], [ 2695522, 1243468 ], [ 2695788, 1243363 ], [ 2695857, 1243318 ], [ 2695906, 1243213 ], [ 2695939, 1243062 ], [ 2695918, 1242965 ], [ 2695911, 1242965 ], [ 2695911, 1242803 ], [ 2695820, 1242579 ], [ 2695747, 1242489 ], [ 2695647, 1242424 ], [ 2695582, 1242441 ], [ 2695468, 1242511 ], [ 2695388, 1242511 ], [ 2695362, 1242426 ], [ 2695349, 1242428 ], [ 2695377, 1242420 ], [ 2695365, 1242415 ], [ 2695376, 1242413 ], [ 2695367, 1242365 ], [ 2695271, 1242306 ], [ 2695205, 1242249 ], [ 2695181, 1242207 ], [ 2695197, 1242138 ], [ 2695251, 1242034 ], [ 2695246, 1242003 ], [ 2695217, 1241976 ], [ 2695152, 1241960 ], [ 2695119, 1241920 ], [ 2695070, 1241896 ], [ 2694934, 1241928 ], [ 2694796, 1241922 ], [ 2694756, 1241933 ], [ 2694618, 1242048 ], [ 2694607, 1242078 ], [ 2694635, 1242106 ], [ 2694649, 1242177 ], [ 2694678, 1242184 ], [ 2694591, 1242224 ], [ 2694575, 1242247 ], [ 2694555, 1242326 ], [ 2694557, 1242548 ], [ 2694448, 1242768 ], [ 2694439, 1242823 ], [ 2694407, 1242867 ], [ 2694416, 1242931 ], [ 2694286, 1243010 ], [ 2694250, 1243099 ], [ 2694240, 1243143 ], [ 2694253, 1243206 ], [ 2694205, 1243319 ], [ 2694239, 1243373 ], [ 2694171, 1243388 ], [ 2694036, 1243573 ], [ 2694019, 1243609 ], [ 2694010, 1243722 ], [ 2693905, 1243867 ], [ 2693710, 1244010 ], [ 2693657, 1244230 ], [ 2693517, 1244461 ], [ 2693506, 1244512 ], [ 2693474, 1244539 ], [ 2693475, 1244585 ], [ 2693456, 1244616 ], [ 2693392, 1244603 ], [ 2693268, 1244676 ], [ 2693107, 1244685 ], [ 2692990, 1244737 ], [ 2692899, 1244818 ], [ 2692747, 1245016 ], [ 2692737, 1245079 ], [ 2692679, 1245152 ], [ 2692572, 1245402 ], [ 2692559, 1245460 ], [ 2692568, 1245495 ], [ 2692405, 1245528 ], [ 2692319, 1245573 ], [ 2692115, 1245861 ], [ 2691836, 1246194 ], [ 2691688, 1246490 ], [ 2691699, 1246700 ] ], [ [ 2695907, 1242972 ], [ 2695918, 1242966 ], [ 2695918, 1242971 ], [ 2695907, 1242972 ] ], [ [ 2694668, 1244106 ], [ 2694678, 1244087 ], [ 2694684, 1244096 ], [ 2694668, 1244106 ] ] ] } },
{ "type": "Feature", "properties": { "gewaessername": "Lützelsee" }, "geometry": { "type": "Polygon", "coordinates": [ [ [ 2701189, 1235476 ], [ 2701251, 1235439 ], [ 2701224, 1235432 ], [ 2701226, 1235402 ], [ 2701255, 1235376 ], [ 2701295, 1235294 ], [ 2701299, 1235238 ], [ 2701281, 1235205 ], [ 2701218, 1235182 ], [ 2701147, 1235198 ], [ 2701108, 1235153 ], [ 2701063, 1235144 ], [ 2701059, 1235126 ], [ 2701043, 1235141 ], [ 2701018, 1235137 ], [ 2700995, 1235057 ], [ 2701012, 1235043 ], [ 2701000, 1235024 ], [ 2700958, 1235013 ], [ 2700855, 1235018 ], [ 2700824, 1234993 ], [ 2700720, 1234997 ], [ 2700690, 1234983 ], [ 2700609, 1235045 ], [ 2700603, 1235071 ], [ 2700622, 1235118 ], [ 2700661, 1235129 ], [ 2700750, 1235231 ], [ 2700872, 1235262 ], [ 2700923, 1235308 ], [ 2700922, 1235336 ], [ 2700944, 1235313 ], [ 2701044, 1235396 ], [ 2701076, 1235406 ], [ 2701096, 1235394 ], [ 2701096, 1235418 ], [ 2701117, 1235405 ], [ 2701105, 1235461 ], [ 2701143, 1235440 ], [ 2701173, 1235453 ], [ 2701183, 1235436 ], [ 2701195, 1235451 ], [ 2701189, 1235476 ] ], [ [ 2700687, 1235011 ], [ 2700692, 1235002 ], [ 2700693, 1235010 ], [ 2700687, 1235011 ] ] ] } },
{ "type": "Feature", "properties": { "gewaessername": "Türlersee" }, "geometry": { "type": "Polygon", "coordinates": [ [ [ 2681040, 1235690 ], [ 2681098, 1235566 ], [ 2681079, 1235530 ], [ 2681122, 1235518 ], [ 2681151, 1235461 ], [ 2681145, 1235398 ], [ 2681056, 1235355 ], [ 2680920, 1235425 ], [ 2680871, 1235482 ], [ 2680769, 1235522 ], [ 2680708, 1235514 ], [ 2680568, 1235436 ], [ 2680479, 1235468 ], [ 2680470, 1235659 ], [ 2680397, 1235703 ], [ 2680277, 1235747 ], [ 2680183, 1235811 ], [ 2680097, 1235924 ], [ 2680052, 1236037 ], [ 2680057, 1236058 ], [ 2680019, 1236164 ], [ 2680027, 1236207 ], [ 2680097, 1236349 ], [ 2680180, 1236399 ], [ 2680211, 1236503 ], [ 2680282, 1236402 ], [ 2680340, 1236383 ], [ 2680392, 1236319 ], [ 2680397, 1236241 ], [ 2680413, 1236215 ], [ 2680520, 1236113 ], [ 2680635, 1236035 ], [ 2680704, 1235906 ], [ 2680864, 1235794 ], [ 2680990, 1235732 ], [ 2681040, 1235690 ] ] ] } },
{ "type": "Feature", "properties": { "gewaessername": "Unterer Chatzensee" }, "geometry": { "type": "Polygon", "coordinates": [ [ [ 2679598, 1253944 ], [ 2679588, 1253926 ], [ 2679525, 1253904 ], [ 2679496, 1253837 ], [ 2679421, 1253754 ], [ 2679352, 1253710 ], [ 2679324, 1253710 ], [ 2679074, 1253836 ], [ 2678989, 1253907 ], [ 2678985, 1253943 ], [ 2679012, 1254031 ], [ 2679097, 1254034 ], [ 2679221, 1254097 ], [ 2679278, 1254105 ], [ 2679334, 1254086 ], [ 2679561, 1254132 ], [ 2679618, 1254122 ], [ 2679650, 1254090 ], [ 2679718, 1254073 ], [ 2679733, 1254040 ], [ 2679731, 1253985 ], [ 2679711, 1253966 ], [ 2679646, 1253940 ], [ 2679598, 1253944 ] ] ] } },
{ "type": "Feature", "properties": { "gewaessername": "Bichelsee" }, "geometry": { "type": "Polygon", "coordinates": [ [ [ 2710239, 1257476 ], [ 2710365, 1257435 ], [ 2710439, 1257366 ], [ 2710435, 1257316 ], [ 2710322, 1257272 ], [ 2710246, 1257207 ], [ 2710141, 1257148 ], [ 2710113, 1257165 ], [ 2710110, 1257186 ], [ 2710052, 1257171 ], [ 2709960, 1257263 ], [ 2709981, 1257310 ], [ 2710036, 1257350 ], [ 2710057, 1257414 ], [ 2710091, 1257445 ], [ 2710239, 1257476 ] ] ] } },
{ "type": "Feature", "properties": { "gewaessername": "Hüttnersee" }, "geometry": { "type": "Polygon", "coordinates": [ [ [ 2693868, 1226735 ], [ 2693952, 1226711 ], [ 2693945, 1226691 ], [ 2693971, 1226600 ], [ 2694024, 1226543 ], [ 2694045, 1226487 ], [ 2694018, 1226464 ], [ 2693865, 1226447 ], [ 2693678, 1226396 ], [ 2693604, 1226420 ], [ 2693522, 1226483 ], [ 2693397, 1226491 ], [ 2693331, 1226459 ], [ 2693301, 1226479 ], [ 2693280, 1226473 ], [ 2693255, 1226523 ], [ 2693258, 1226547 ], [ 2693431, 1226609 ], [ 2693524, 1226657 ], [ 2693546, 1226683 ], [ 2693632, 1226718 ], [ 2693729, 1226736 ], [ 2693868, 1226735 ] ], [ [ 2694014, 1226537 ], [ 2694025, 1226533 ], [ 2694023, 1226540 ], [ 2694014, 1226537 ] ] ] } },
{ "type": "Feature", "properties": { "gewaessername": "Oberer Chatzensee" }, "geometry": { "type": "Polygon", "coordinates": [ [ [ 2679809, 1254112 ], [ 2679788, 1254110 ], [ 2679747, 1254237 ], [ 2679699, 1254265 ], [ 2679655, 1254320 ], [ 2679654, 1254379 ], [ 2679672, 1254400 ], [ 2679736, 1254434 ], [ 2679828, 1254430 ], [ 2679901, 1254396 ], [ 2679897, 1254384 ], [ 2679918, 1254370 ], [ 2680002, 1254351 ], [ 2680079, 1254305 ], [ 2680093, 1254282 ], [ 2680073, 1254213 ], [ 2680061, 1254029 ], [ 2679990, 1253934 ], [ 2679969, 1253929 ], [ 2679969, 1253948 ], [ 2679932, 1253953 ], [ 2679841, 1254008 ], [ 2679801, 1254078 ], [ 2679809, 1254112 ] ] ] } },
{ "type": "Feature", "properties": { "gewaessername": "Husemersee" }, "geometry": { "type": "Polygon", "coordinates": [ [ [ 2695096, 1275466 ], [ 2695197, 1275430 ], [ 2695300, 1275450 ], [ 2695338, 1275439 ], [ 2695388, 1275367 ], [ 2695375, 1275316 ], [ 2695399, 1275290 ], [ 2695388, 1275270 ], [ 2695366, 1275293 ], [ 2695327, 1275245 ], [ 2695114, 1275223 ], [ 2695116, 1275234 ], [ 2695109, 1275224 ], [ 2694980, 1275256 ], [ 2694963, 1275279 ], [ 2694969, 1275314 ], [ 2695020, 1275378 ], [ 2695044, 1275450 ], [ 2695096, 1275466 ] ] ] } }
]
}
